CCSDS_OMM_VERS = 2.0
CREATION_DATE  = 
ORIGINATOR     = 

OBJECT_NAME    = ATLAS CENTAUR R/B
OBJECT_ID      = 1972-065B
CENTER_NAME    = EARTH
REF_FRAME      = TEME
TIME_SYSTEM    = UTC
MEAN_ELEMENT_THEORY = SGP/SGP4

EPOCH          = 2025-11-19T01:46:23.651904
MEAN_MOTION    = 14.77323352
ECCENTRICITY   = .00335864
INCLINATION    = 35.0013
RA_OF_ASC_NODE = 233.8200
ARG_OF_PERICENTER = 161.1907
MEAN_ANOMALY   = 199.0041

EPHEMERIS_TYPE = 0
CLASSIFICATION_TYPE = U
NORAD_CAT_ID   = 6155
ELEMENT_SET_NO = 999
REV_AT_EPOCH   = 82489
BSTAR          = .19844657E-3
MEAN_MOTION_DOT = .1422E-4
MEAN_MOTION_DDOT = 0

CCSDS_OMM_VERS = 2.0
CREATION_DATE  = 
ORIGINATOR     = 

OBJECT_NAME    = SL-8 R/B
OBJECT_ID      = 1975-112B
CENTER_NAME    = EARTH
REF_FRAME      = TEME
TIME_SYSTEM    = UTC
MEAN_ELEMENT_THEORY = SGP/SGP4

EPOCH          = 2025-11-19T04:18:11.278080
MEAN_MOTION    = 14.38124273
ECCENTRICITY   = .00159949
INCLINATION    = 74.0607
RA_OF_ASC_NODE = 222.1916
ARG_OF_PERICENTER = 336.6970
MEAN_ANOMALY   = 23.3457

EPHEMERIS_TYPE = 0
CLASSIFICATION_TYPE = U
NORAD_CAT_ID   = 8459
ELEMENT_SET_NO = 999
REV_AT_EPOCH   = 61598
BSTAR          = .11825467E-3
MEAN_MOTION_DOT = .333E-5
MEAN_MOTION_DDOT = 0

CCSDS_OMM_VERS = 2.0
CREATION_DATE  = 
ORIGINATOR     = 

OBJECT_NAME    = SL-3 R/B
OBJECT_ID      = 1977-057B
CENTER_NAME    = EARTH
REF_FRAME      = TEME
TIME_SYSTEM    = UTC
MEAN_ELEMENT_THEORY = SGP/SGP4

EPOCH          = 2025-11-19T14:20:31.973856
MEAN_MOTION    = 15.42212030
ECCENTRICITY   = .00070392
INCLINATION    = 97.5675
RA_OF_ASC_NODE = 126.0392
ARG_OF_PERICENTER = 329.3208
MEAN_ANOMALY   = 30.7626

EPHEMERIS_TYPE = 0
CLASSIFICATION_TYPE = U
NORAD_CAT_ID   = 10114
ELEMENT_SET_NO = 999
REV_AT_EPOCH   = 65134
BSTAR          = .28580491E-3
MEAN_MOTION_DOT = .12192E-3
MEAN_MOTION_DDOT = 0

CCSDS_OMM_VERS = 2.0
CREATION_DATE  = 
ORIGINATOR     = 

OBJECT_NAME    = SEASAT 1
OBJECT_ID      = 1978-064A
CENTER_NAME    = EARTH
REF_FRAME      = TEME
TIME_SYSTEM    = UTC
MEAN_ELEMENT_THEORY = SGP/SGP4

EPOCH          = 2025-11-19T13:50:41.892864
MEAN_MOTION    = 14.46023974
ECCENTRICITY   = .00022138
INCLINATION    = 108.0077
RA_OF_ASC_NODE = 254.4450
ARG_OF_PERICENTER = 253.5951
MEAN_ANOMALY   = 106.4952

EPHEMERIS_TYPE = 0
CLASSIFICATION_TYPE = U
NORAD_CAT_ID   = 10967
ELEMENT_SET_NO = 999
REV_AT_EPOCH   = 49059
BSTAR          = .17463337E-3
MEAN_MOTION_DOT = .486E-5
MEAN_MOTION_DDOT = 0

CCSDS_OMM_VERS = 2.0
CREATION_DATE  = 
ORIGINATOR     = 

OBJECT_NAME    = SL-14 R/B
OBJECT_ID      = 1979-011B
CENTER_NAME    = EARTH
REF_FRAME      = TEME
TIME_SYSTEM    = UTC
MEAN_ELEMENT_THEORY = SGP/SGP4

EPOCH          = 2025-11-19T15:30:55.390752
MEAN_MOTION    = 14.91731027
ECCENTRICITY   = .00175992
INCLINATION    = 82.5254
RA_OF_ASC_NODE = 200.9430
ARG_OF_PERICENTER = 67.1086
MEAN_ANOMALY   = 293.1989

EPHEMERIS_TYPE = 0
CLASSIFICATION_TYPE = U
NORAD_CAT_ID   = 11267
ELEMENT_SET_NO = 999
REV_AT_EPOCH   = 51237
BSTAR          = .70921868E-4
MEAN_MOTION_DOT = .741E-5
MEAN_MOTION_DDOT = 0

CCSDS_OMM_VERS = 2.0
CREATION_DATE  = 
ORIGINATOR     = 

OBJECT_NAME    = SL-8 R/B
OBJECT_ID      = 1979-089B
CENTER_NAME    = EARTH
REF_FRAME      = TEME
TIME_SYSTEM    = UTC
MEAN_ELEMENT_THEORY = SGP/SGP4

EPOCH          = 2025-11-19T09:23:46.994496
MEAN_MOTION    = 14.42260900
ECCENTRICITY   = .00147965
INCLINATION    = 74.0679
RA_OF_ASC_NODE = 295.1920
ARG_OF_PERICENTER = 139.2471
MEAN_ANOMALY   = 220.9795

EPHEMERIS_TYPE = 0
CLASSIFICATION_TYPE = U
NORAD_CAT_ID   = 11574
ELEMENT_SET_NO = 999
REV_AT_EPOCH   = 42020
BSTAR          = .12164723E-3
MEAN_MOTION_DOT = .375E-5
MEAN_MOTION_DDOT = 0

CCSDS_OMM_VERS = 2.0
CREATION_DATE  = 
ORIGINATOR     = 

OBJECT_NAME    = SL-14 R/B
OBJECT_ID      = 1980-005B
CENTER_NAME    = EARTH
REF_FRAME      = TEME
TIME_SYSTEM    = UTC
MEAN_ELEMENT_THEORY = SGP/SGP4

EPOCH          = 2025-11-19T07:39:00.336960
MEAN_MOTION    = 14.90749708
ECCENTRICITY   = .00161205
INCLINATION    = 82.5163
RA_OF_ASC_NODE = 51.9072
ARG_OF_PERICENTER = 166.4467
MEAN_ANOMALY   = 193.7188

EPHEMERIS_TYPE = 0
CLASSIFICATION_TYPE = U
NORAD_CAT_ID   = 11672
ELEMENT_SET_NO = 999
REV_AT_EPOCH   = 46004
BSTAR          = .88041854E-4
MEAN_MOTION_DOT = .892E-5
MEAN_MOTION_DDOT = 0

CCSDS_OMM_VERS = 2.0
CREATION_DATE  = 
ORIGINATOR     = 

OBJECT_NAME    = SL-8 R/B
OBJECT_ID      = 1981-003B
CENTER_NAME    = EARTH
REF_FRAME      = TEME
TIME_SYSTEM    = UTC
MEAN_ELEMENT_THEORY = SGP/SGP4

EPOCH          = 2025-11-19T14:55:57.624672
MEAN_MOTION    = 15.05927413
ECCENTRICITY   = .02819853
INCLINATION    = 82.9339
RA_OF_ASC_NODE = 31.4630
ARG_OF_PERICENTER = 200.2496
MEAN_ANOMALY   = 158.7374

EPHEMERIS_TYPE = 0
CLASSIFICATION_TYPE = U
NORAD_CAT_ID   = 12139
ELEMENT_SET_NO = 999
REV_AT_EPOCH   = 29808
BSTAR          = .64400279E-3
MEAN_MOTION_DOT = .23656E-3
MEAN_MOTION_DDOT = 0

CCSDS_OMM_VERS = 2.0
CREATION_DATE  = 
ORIGINATOR     = 

OBJECT_NAME    = SL-3 R/B
OBJECT_ID      = 1981-046B
CENTER_NAME    = EARTH
REF_FRAME      = TEME
TIME_SYSTEM    = UTC
MEAN_ELEMENT_THEORY = SGP/SGP4

EPOCH          = 2025-11-19T13:14:49.125408
MEAN_MOTION    = 15.38946580
ECCENTRICITY   = .0020405
INCLINATION    = 81.2344
RA_OF_ASC_NODE = 61.6583
ARG_OF_PERICENTER = 44.4037
MEAN_ANOMALY   = 315.8835

EPHEMERIS_TYPE = 0
CLASSIFICATION_TYPE = U
NORAD_CAT_ID   = 12465
ELEMENT_SET_NO = 999
REV_AT_EPOCH   = 42147
BSTAR          = .30272763E-3
MEAN_MOTION_DOT = .11785E-3
MEAN_MOTION_DDOT = 0

CCSDS_OMM_VERS = 2.0
CREATION_DATE  = 
ORIGINATOR     = 

OBJECT_NAME    = METEOR PRIRODA
OBJECT_ID      = 1981-065A
CENTER_NAME    = EARTH
REF_FRAME      = TEME
TIME_SYSTEM    = UTC
MEAN_ELEMENT_THEORY = SGP/SGP4

EPOCH          = 2025-11-19T17:41:30.465888
MEAN_MOTION    = 16.39296254
ECCENTRICITY   = .0007763
INCLINATION    = 97.4523
RA_OF_ASC_NODE = 29.4634
ARG_OF_PERICENTER = 260.5329
MEAN_ANOMALY   = 99.5093

EPHEMERIS_TYPE = 0
CLASSIFICATION_TYPE = U
NORAD_CAT_ID   = 12585
ELEMENT_SET_NO = 999
REV_AT_EPOCH   = 42712
BSTAR          = .45149E-3
MEAN_MOTION_DOT = .516342E-1
MEAN_MOTION_DDOT = .25821E-5

CCSDS_OMM_VERS = 2.0
CREATION_DATE  = 
ORIGINATOR     = 

OBJECT_NAME    = SL-3 R/B
OBJECT_ID      = 1981-103B
CENTER_NAME    = EARTH
REF_FRAME      = TEME
TIME_SYSTEM    = UTC
MEAN_ELEMENT_THEORY = SGP/SGP4

EPOCH          = 2025-11-19T13:17:52.330560
MEAN_MOTION    = 15.19833198
ECCENTRICITY   = .00117349
INCLINATION    = 81.1587
RA_OF_ASC_NODE = 342.5026
ARG_OF_PERICENTER = 304.4870
MEAN_ANOMALY   = 55.5252

EPHEMERIS_TYPE = 0
CLASSIFICATION_TYPE = U
NORAD_CAT_ID   = 12904
ELEMENT_SET_NO = 999
REV_AT_EPOCH   = 95649
BSTAR          = .31113166E-3
MEAN_MOTION_DOT = .6704E-4
MEAN_MOTION_DDOT = 0

CCSDS_OMM_VERS = 2.0
CREATION_DATE  = 
ORIGINATOR     = 

OBJECT_NAME    = SL-3 R/B
OBJECT_ID      = 1982-013B
CENTER_NAME    = EARTH
REF_FRAME      = TEME
TIME_SYSTEM    = UTC
MEAN_ELEMENT_THEORY = SGP/SGP4

EPOCH          = 2025-11-19T13:13:38.506368
MEAN_MOTION    = 15.20792840
ECCENTRICITY   = .00225217
INCLINATION    = 81.1731
RA_OF_ASC_NODE = 289.7469
ARG_OF_PERICENTER = 186.8024
MEAN_ANOMALY   = 173.2905

EPHEMERIS_TYPE = 0
CLASSIFICATION_TYPE = U
NORAD_CAT_ID   = 13068
ELEMENT_SET_NO = 999
REV_AT_EPOCH   = 38760
BSTAR          = .19165871E-3
MEAN_MOTION_DOT = .4277E-4
MEAN_MOTION_DDOT = 0

