ATLAS CENTAUR R/B       
1 06155U 72065B   25323.07388486  .00001422  00000+0  19845-3 0  9994
2 06155  35.0013 233.8200 0033586 161.1907 199.0041 14.77323352824891
SL-8 R/B                
1 08459U 75112B   25323.17929720  .00000333  00000+0  11825-3 0  9992
2 08459  74.0607 222.1916 0015994 336.6970  23.3457 14.38124273615985
SL-3 R/B                
1 10114U 77057B   25323.59759229  .00012192  00000+0  28580-3 0  9996
2 10114  97.5675 126.0392 0007039 329.3208  30.7626 15.42212030651340
SEASAT 1                
1 10967U 78064A   25323.57687376  .00000486  00000+0  17463-3 0  9993
2 10967 108.0077 254.4450 0002213 253.5951 106.4952 14.46023974490594
SL-14 R/B               
1 11267U 79011B   25323.64647443  .00000741  00000+0  70922-4 0  9993
2 11267  82.5254 200.9430 0017599  67.1086 293.1989 14.91731027512376
SL-8 R/B                
1 11574U 79089B   25323.39151614  .00000375  00000+0  12165-3 0  9998
2 11574  74.0679 295.1920 0014796 139.2471 220.9795 14.42260900420205
SL-14 R/B               
1 11672U 80005B   25323.31875390  .00000892  00000+0  88042-4 0  9995
2 11672  82.5163  51.9072 0016120 166.4467 193.7188 14.90749708460042
SL-8 R/B                
1 12139U 81003B   25323.62219473  .00023656  00000+0  64400-3 0  9995
2 12139  82.9339  31.4630 0281985 200.2496 158.7374 15.05927413298084
SL-3 R/B                
1 12465U 81046B   25323.55195747  .00011785  00000+0  30273-3 0  9994
2 12465  81.2344  61.6583 0020405  44.4037 315.8835 15.38946580421474
METEOR PRIRODA          
1 12585U 81065A   25323.73715817  .05163420  25821-5  45149-3 0  9995
2 12585  97.4523  29.4634 0007763 260.5329  99.5093 16.39296254427129
SL-3 R/B                
1 12904U 81103B   25323.55407790  .00006704  00000+0  31113-3 0  9999
2 12904  81.1587 342.5026 0011734 304.4870  55.5252 15.19833198956497
SL-3 R/B                
1 13068U 82013B   25323.55114012  .00004277  00000+0  19166-3 0  9991
2 13068  81.1731 289.7469 0022521 186.8024 173.2905 15.20792840387606
